OBJECT_NAME,OBJECT_ID,EPOCH,MEAN_MOTION,ECCENTRICITY,INCLINATION,RA_OF_ASC_NODE,ARG_OF_PERICENTER,MEAN_ANOMALY,EPHEMERIS_TYPE,CLASSIFICATION_TYPE,NORAD_CAT_ID,ELEMENT_SET_NO,REV_AT_EPOCH,BSTAR,MEAN_MOTION_DOT,MEAN_MOTION_DDOT
FENGYUN 1C DEB,1999-025DFY,2026-03-20T08:10:48.500832,15.26186452,.0100379,98.9878,109.1368,8.2537,352.0319,0,U,33687,999,72993,.66243972E-3,.19768E-3,0
FENGYUN 1C DEB,1999-025DFZ,2026-03-21T01:15:02.062080,14.47909305,.00482944,99.3475,196.5626,333.5033,26.3689,0,U,33688,999,92903,.19639049E-2,.7339E-4,0
FENGYUN 1C DEB,1999-025DGA,2026-03-03T06:56:32.079552,14.45863811,.00463882,99.5631,84.7451,276.2332,146.0418,0,U,33689,999,70694,.11488164E-2,.4081E-4,0
FENGYUN 1C DEB,1999-025DGE,2026-03-19T05:59:20.338944,13.71627146,.02256948,99.2251,257.2567,106.6571,255.9484,0,U,33693,999,89554,.77641511E-3,.799E-5,0
FENGYUN 1C DEB,1999-025DGN,2026-03-19T19:18:39.416832,14.02881545,.01320869,98.6690,33.5341,276.4275,82.1866,0,U,33701,999,91866,.10846584E-2,.1772E-4,0
FENGYUN 1C DEB,1999-025DGX,2026-03-20T12:12:05.128416,14.12030095,.00548954,98.9751,183.4361,229.3789,130.2601,0,U,33710,999,69036,.8801272E-3,.159E-4,0
FENGYUN 1C DEB,1999-025DHF,2026-03-19T00:09:19.453824,14.08673167,.00978117,99.6532,176.3441,57.9101,303.1517,0,U,33718,999,70541,.94647999E-3,.1653E-4,0
FENGYUN 1C DEB,1999-025DHL,2026-03-20T12:12:08.433216,14.14217796,.00984945,99.1451,167.3707,57.5751,319.5654,0,U,33723,999,65005,.14490119E-2,.2851E-4,0
FENGYUN 1C DEB,1999-025DHP,2026-03-21T02:48:36.684000,14.14547047,.01932174,98.6457,206.2268,109.3156,68.9990,0,U,33726,999,93322,.36569067E-3,.799E-5,0
FENGYUN 1C DEB,1999-025DHT,2026-03-17T09:51:30.375072,14.65376553,.00393455,99.0421,148.4865,82.4730,278.0937,0,U,33730,999,97065,.98712845E-3,.5339E-4,0
FENGYUN 1C DEB,1999-025DHU,2026-03-21T12:41:17.668608,13.95849384,.01294738,99.4360,110.1496,147.4475,213.4753,0,U,33731,999,91827,.1172743E-2,.1673E-4,0
FENGYUN 1C DEB,1999-025DHW,2026-03-20T05:15:39.921984,14.32826044,.00769037,99.0928,174.2382,244.0692,145.0072,0,U,33733,999,91843,.18109202E-2,.5059E-4,0
FENGYUN 1C DEB,1999-025DJB,2026-03-20T10:37:05.302272,13.99764377,.01881999,99.1322,144.4376,113.1256,267.1403,0,U,33738,999,90603,.32041842E-3,.504E-5,0
FENGYUN 1C DEB,1999-025DJD,2026-03-18T18:35:50.407872,14.12382153,.00007658,98.6849,92.7335,184.0695,176.0471,0,U,33740,999,91502,.12135926E-3,.181E-5,0
FENGYUN 1C DEB,1999-025DJE,2026-03-17T16:49:39.142272,14.10702933,.01238913,98.5646,350.8297,178.4464,181.7117,0,U,33741,999,58201,.12312736E-2,.2323E-4,0
FENGYUN 1C DEB,1999-025DJJ,2026-03-17T13:53:25.976832,14.22979645,.00522323,99.1052,121.9417,357.7306,2.3626,0,U,33745,999,67350,.96547224E-3,.2157E-4,0
FENGYUN 1C DEB,1999-025DJM,2026-03-20T22:00:23.195232,14.32798648,.00334556,98.5730,135.0757,311.1223,48.7074,0,U,33748,999,92799,.42686976E-3,.1127E-4,0
FENGYUN 1C DEB,1999-025DJS,2026-03-21T12:25:13.433376,14.18242561,.00569437,99.1941,101.7029,96.8190,263.9467,0,U,35090,999,67650,.1381858E-2,.2843E-4,0
