FENGYUN 1C DEB          
1 33687U 99025DFY 26079.34083913  .00019768  00000+0  66244-3 0  9992
2 33687  98.9878 109.1368 0100379   8.2537 352.0319 15.26186452729934
FENGYUN 1C DEB          
1 33688U 99025DFZ 26080.05210720  .00007339  00000+0  19639-2 0  9997
2 33688  99.3475 196.5626 0048294 333.5033  26.3689 14.47909305929038
FENGYUN 1C DEB          
1 33689U 99025DGA 26062.28926018  .00004081  00000+0  11488-2 0  9992
2 33689  99.5631  84.7451 0046388 276.2332 146.0418 14.45863811706948
FENGYUN 1C DEB          
1 33693U 99025DGE 26078.24954096  .00000799  00000+0  77642-3 0  9994
2 33693  99.2251 257.2567 0225694 106.6571 255.9484 13.71627146895548
FENGYUN 1C DEB          
1 33701U 99025DGN 26078.80462288  .00001772  00000+0  10847-2 0  9998
2 33701  98.6690  33.5341 0132086 276.4275  82.1866 14.02881545918665
FENGYUN 1C DEB          
1 33710U 99025DGX 26079.50839269  .00001590  00000+0  88013-3 0  9992
2 33710  98.9751 183.4361 0054895 229.3789 130.2601 14.12030095690364
FENGYUN 1C DEB          
1 33718U 99025DHF 26078.00647516  .00001653  00000+0  94648-3 0  9997
2 33718  99.6532 176.3441 0097811  57.9101 303.1517 14.08673167705413
FENGYUN 1C DEB          
1 33723U 99025DHL 26079.50843094  .00002851  00000+0  14490-2 0  9995
2 33723  99.1451 167.3707 0098494  57.5751 319.5654 14.14217796650055
FENGYUN 1C DEB          
1 33726U 99025DHP 26080.11709125  .00000799  00000+0  36569-3 0  9994
2 33726  98.6457 206.2268 0193217 109.3156  68.9990 14.14547047933223
FENGYUN 1C DEB          
1 33730U 99025DHT 26076.41076823  .00005339  00000+0  98713-3 0  9993
2 33730  99.0421 148.4865 0039345  82.4730 278.0937 14.65376553970655
FENGYUN 1C DEB          
1 33731U 99025DHU 26080.52867672  .00001673  00000+0  11727-2 0  9997
2 33731  99.4360 110.1496 0129473 147.4475 213.4753 13.95849384918276
FENGYUN 1C DEB          
1 33733U 99025DHW 26079.21921206  .00005059  00000+0  18109-2 0  9990
2 33733  99.0928 174.2382 0076903 244.0692 145.0072 14.32826044918435
FENGYUN 1C DEB          
1 33738U 99025DJB 26079.44242248  .00000504  00000+0  32042-3 0  9995
2 33738  99.1322 144.4376 0188199 113.1256 267.1403 13.99764377906033
FENGYUN 1C DEB          
1 33740U 99025DJD 26077.77488898  .00000181  00000+0  12136-3 0  9998
2 33740  98.6849  92.7335 0000765 184.0695 176.0471 14.12382153915026
FENGYUN 1C DEB          
1 33741U 99025DJE 26076.70114748  .00002323  00000+0  12313-2 0  9997
2 33741  98.5646 350.8297 0123891 178.4464 181.7117 14.10702933582012
FENGYUN 1C DEB          
1 33745U 99025DJJ 26076.57877288  .00002157  00000+0  96547-3 0  9998
2 33745  99.1052 121.9417 0052232 357.7306   2.3626 14.22979645673509
FENGYUN 1C DEB          
1 33748U 99025DJM 26079.91693513  .00001127  00000+0  42687-3 0  9991
2 33748  98.5730 135.0757 0033455 311.1223  48.7074 14.32798648927998
FENGYUN 1C DEB          
1 35090U 99025DJS 26080.51751659  .00002843  00000+0  13819-2 0  9997
2 35090  99.1941 101.7029 0056943  96.8190 263.9467 14.18242561676507
